{
    "ORDINAL": "1",
    "COMMENT": "GENERATED VIA SPACETRACK.ORG API",
    "ORIGINATOR": "18 SPCS",
    "NORAD_CAT_ID": "33",
    "OBJECT_NAME": "THOR ABLESTAR DEB",
    "OBJECT_TYPE": "DEBRIS",
    "CLASSIFICATION_TYPE": "U",
    "INTLDES": "60003C",
    "EPOCH": "1960-10-06 07:59:06",
    "EPOCH_MICROSECONDS": "496512",
    "MEAN_MOTION": "15.38343354",
    "ECCENTRICITY": "0.0242757",
    "INCLINATION": "51.2879",
    "RA_OF_ASC_NODE": "136.0668",
    "ARG_OF_PERICENTER": "196.78",
    "MEAN_ANOMALY": "163.61",
    "EPHEMERIS_TYPE": "0",
    "ELEMENT_SET_NO": "999",
    "REV_AT_EPOCH": "2700",
    "BSTAR": "0",
    "MEAN_MOTION_DOT": "0.00001932",
    "MEAN_MOTION_DDOT": "0",
    "FILE": "33906",
    "TLE_LINE0": "0 THOR ABLESTAR DEB",
    "TLE_LINE1": "1 00033U 60003  C 60280.33271408  .00001932 +00000-0 +00000-0 0  9994",
    "TLE_LINE2": "2 00033 051.2879 136.0668 0242757 196.7800 163.6100 15.38343354027003",
    "OBJECT_ID": "1960-003C",
    "OBJECT_NUMBER": "33",
    "SEMIMAJOR_AXIS": "6829.149",
    "PERIOD": "93.607",
    "APOGEE": "616.797",
    "PERIGEE": "285.232",
    "DECAYED": "1"
}